0 DELTA 1 R/B(1)
1 10517U 77118B   13282.77635758  .00000791  00000-0  12706-3 0  5961
2 10517 028.6645 162.7619 0860679 203.4085 183.7246 13.36472362728675
0 DELTA 1 R/B(1)
1 10517U 77118B   13283.82699053  .00000881  00000-0  14443-3 0  5977
2 10517 028.6649 157.4641 0860705 212.0088 198.6289 13.36474529728819
0 DELTA 1 R/B(1)
1 10517U 77118B   13286.81666597  .00000919  00000-0  15107-3 0  5998
2 10517 028.6652 142.3888 0860785 236.4780 182.8792 13.36476564729216
0 DELTA 1 R/B(1)
1 10517U 77118B   13288.10751505  .00001201  00000-0  20671-3 0  6006
2 10517 028.6651 135.8800 0860738 247.0446 273.5605 13.36480890729387
0 DELTA 1 R/B(1)
1 10517U 77118B   13289.57219325  .00000996  00000-0  16653-3 0  6013
2 10517 028.6647 128.4943 0860724 259.0317 120.6129 13.36483435729586
0 DELTA 1 R/B(1)
1 10517U 77118B   13290.62475760  .00000990  00000-0  16573-3 0  6024
2 10517 028.6643 123.1865 0860688 267.6463 144.8580 13.36485344729729
0 DELTA 1 R/B(1)
1 10517U 77118B   13292.06753424  .00000978  00000-0  16394-3 0  6038
2 10517 028.6635 115.9110 0860636 279.4557 246.5595 13.36486547729913
0 DELTA 1 R/B(1)
1 10517U 77118B   13293.45367615  .00001025  00000-0  17394-3 0  6041
2 10517 028.6629 108.9208 0860568 290.8029 075.7796 13.36488773730102
0 DELTA 1 R/B(1)
1 10517U 77118B   13294.50314947  .00001007  00000-0  17092-3 0  6054
2 10517 028.6625 103.6283 0860531 299.3944 085.1737 13.36491401730240
0 DELTA 1 R/B(1)
1 10517U 77118B   13295.87620650  .00001061  00000-0  18251-3 0  6065
2 10517 028.6620 096.7039 0860496 310.6350 211.4580 13.36493027730420
